[{"OBJECT_NAME":"BEIJING-3B","OBJECT_ID":"2022-103A","EPOCH":"2026-03-09T23:12:38.807712","MEAN_MOTION":14.86939199,"ECCENTRICITY":0.00253745,"INCLINATION":97.8061,"RA_OF_ASC_NODE":148.0995,"ARG_OF_PERICENTER":23.8103,"MEAN_ANOMALY":336.4281,"EPHEMERIS_TYPE":0,"CLASSIFICATION_TYPE":"U","NORAD_CAT_ID":53587,"ELEMENT_SET_NO":999,"REV_AT_EPOCH":19234,"BSTAR":0.00021963538,"MEAN_MOTION_DOT":1.92e-5,"MEAN_MOTION_DDOT":0},{"OBJECT_NAME":"CZ-6A DEB","OBJECT_ID":"2024-140BM","EPOCH":"2026-03-09T15:29:08.555424","MEAN_MOTION":14.58449197,"ECCENTRICITY":0.0134003,"INCLINATION":88.991,"RA_OF_ASC_NODE":281.8497,"ARG_OF_PERICENTER":263.363,"MEAN_ANOMALY":95.2314,"EPHEMERIS_TYPE":0,"CLASSIFICATION_TYPE":"U","NORAD_CAT_ID":60660,"ELEMENT_SET_NO":999,"REV_AT_EPOCH":8401,"BSTAR":0.0008379,"MEAN_MOTION_DOT":4.417e-5,"MEAN_MOTION_DDOT":0}]
